{"fetched_at":"2026-07-24T07:06:08.057Z","source":"https://celestrak.org/NORAD/elements/gp.php?GROUP=oneweb&FORMAT=JSON","constellation":"oneweb","records":[{"OBJECT_NAME":"ONEWEB-0207","OBJECT_ID":"2021-031AJ","EPOCH":"2026-07-23T15:19:35.968800","CLASSIFICATION_TYPE":"U","MEAN_MOTION":13.14501174,"ECCENTRICITY":0.0001947,"INCLINATION":87.8964,"RA_OF_ASC_NODE":282.4386,"ARG_OF_PERICENTER":91.5542,"MEAN_ANOMALY":268.5811,"EPHEMERIS_TYPE":0,"NORAD_CAT_ID":48242,"ELEMENT_SET_NO":999,"REV_AT_EPOCH":25308,"BSTAR":-0.00037425,"MEAN_MOTION_DOT":-0.00000126,"MEAN_MOTION_DDOT":0},{"OBJECT_NAME":"ONEWEB-0208","OBJECT_ID":"2021-031AK","EPOCH":"2026-07-23T14:53:20.666112","CLASSIFICATION_TYPE":"U","MEAN_MOTION":13.14502664,"ECCENTRICITY":0.0002377,"INCLINATION":87.8961,"RA_OF_ASC_NODE":282.4471,"ARG_OF_PERICENTER":98.0183,"MEAN_ANOMALY":262.1217,"EPHEMERIS_TYPE":0,"NORAD_CAT_ID":48243,"ELEMENT_SET_NO":999,"REV_AT_EPOCH":25309,"BSTAR":-0.00050238,"MEAN_MOTION_DOT":-0.00000173,"MEAN_MOTION_DDOT":0},{"OBJECT_NAME":"ONEWEB-0200","OBJECT_ID":"2021-031AL","EPOCH":"2026-07-23T15:50:26.843424","CLASSIFICATION_TYPE":"U","MEAN_MOTION":13.14502808,"ECCENTRICITY":0.0002102,"INCLINATION":87.8973,"RA_OF_ASC_NODE":282.4291,"ARG_OF_PERICENTER":96.908,"MEAN_ANOMALY":263.2289,"EPHEMERIS_TYPE":0,"NORAD_CAT_ID":48244,"ELEMENT_SET_NO":999,"REV_AT_EPOCH":25302,"BSTAR":0.00051587,"MEAN_MOTION_DOT":0.00000204,"MEAN_MOTION_DDOT":0},{"OBJECT_NAME":"ONEWEB-0217","OBJECT_ID":"2021-031AM","EPOCH":"2026-07-23T05:15:36.719136","CLASSIFICATION_TYPE":"U","MEAN_MOTION":13.14503108,"ECCENTRICITY":0.0002389,"INCLINATION":87.8972,"RA_OF_ASC_NODE":282.5209,"ARG_OF_PERICENTER":98.1028,"MEAN_ANOMALY":262.0373,"EPHEMERIS_TYPE":0,"NORAD_CAT_ID":48245,"ELEMENT_SET_NO":999,"REV_AT_EPOCH":25291,"BSTAR":0.00041669,"MEAN_MOTION_DOT":0.00000167,"MEAN_MOTION_DDOT":0},{"OBJECT_NAME":"ONEWEB-0211","OBJECT_ID":"2021-045A","EPOCH":"2026-07-23T14:30:25.648128","CLASSIFICATION_TYPE":"U","MEAN_MOTION":13.16197718,"ECCENTRICITY":0.0002755,"INCLINATION":87.8982,"RA_OF_ASC_NODE":251.818,"ARG_OF_PERICENTER":99.0113,"MEAN_ANOMALY":261.1329,"EPHEMERIS_TYPE":0,"NORAD_CAT_ID":48767,"ELEMENT_SET_NO":999,"REV_AT_EPOCH":24923,"BSTAR":-0.000024635,"MEAN_MOTION_DOT":3e-8,"MEAN_MOTION_DDOT":0},{"OBJECT_NAME":"ONEWEB-0223","OBJECT_ID":"2021-045B","EPOCH":"2026-07-23T13:10:05.455200","CLASSIFICATION_TYPE":"U","MEAN_MOTION":13.15548545,"ECCENTRICITY":0.0002403,"INCLINATION":87.8982,"RA_OF_ASC_NODE":251.9471,"ARG_OF_PERICENTER":102.4621,"MEAN_ANOMALY":257.6778,"EPHEMERIS_TYPE":0,"NORAD_CAT_ID":48768,"ELEMENT_SET_NO":999,"REV_AT_EPOCH":24918,"BSTAR":-0.00037712,"MEAN_MOTION_DOT":-0.00000129,"MEAN_MOTION_DDOT":0},{"OBJECT_NAME":"ONEWEB-0230","OBJECT_ID":"2021-045C","EPOCH":"2026-07-23T03:21:24.596928","CLASSIFICATION_TYPE":"U","MEAN_MOTION":13.1554877,"ECCENTRICITY":0.00018705,"INCLINATION":87.8979,"RA_OF_ASC_NODE":252.039,"ARG_OF_PERICENTER":95.4574,"MEAN_ANOMALY":264.6769,"EPHEMERIS_TYPE":0,"NORAD_CAT_ID":48769,"ELEMENT_SET_NO":999,"REV_AT_EPOCH":24939,"BSTAR":0.00011355796,"MEAN_MOTION_DOT":5.6e-7,"MEAN_MOTION_DDOT":0},{"OBJECT_NAME":"ONEWEB-0237","OBJECT_ID":"2021-045D","EPOCH":"2026-07-23T14:02:33.349344","CLASSIFICATION_TYPE":"U","MEAN_MOTION":13.15555993,"ECCENTRICITY":0.0002451,"INCLINATION":87.8963,"RA_OF_ASC_NODE":251.9511,"ARG_OF_PERICENTER":87.3115,"MEAN_ANOMALY":272.8296,"EPHEMERIS_TYPE":0,"NORAD_CAT_ID":48770,"ELEMENT_SET_NO":999,"REV_AT_EPOCH":24917,"BSTAR":0.0026236,"MEAN_MOTION_DOT":0.00001001,"MEAN_MOTION_DDOT":0},{"OBJECT_NAME":"ONEWEB-0235","OBJECT_ID":"2021-045E","EPOCH":"2026-07-23T04:18:25.091712","CLASSIFICATION_TYPE":"U","MEAN_MOTION":13.15547792,"ECCENTRICITY":0.0002368,"INCLINATION":87.8983,"RA_OF_ASC_NODE":252.0221,"ARG_OF_PERICENTER":105.2113,"MEAN_ANOMALY":254.9279,"EPHEMERIS_TYPE":0,"NORAD_CAT_ID":48771,"ELEMENT_SET_NO":999,"REV_AT_EPOCH":24911,"BSTAR":-0.00034077,"MEAN_MOTION_DOT":-0.00000115,"MEAN_MOTION_DDOT":0},{"OBJECT_NAME":"ONEWEB-0242","OBJECT_ID":"2021-045F","EPOCH":"2026-07-23T13:16:56.053056","CLASSIFICATION_TYPE":"U","MEAN_MOTION":13.15548827,"ECCENTRICITY":0.0002024,"INCLINATION":87.8986,"RA_OF_ASC_NODE":251.9451,"ARG_OF_PERICENTER":102.4575,"MEAN_ANOMALY":257.6782,"EPHEMERIS_TYPE":0,"NORAD_CAT_ID":48772,"ELEMENT_SET_NO":999,"REV_AT_EPOCH":24920,"BSTAR":-0.00016419,"MEAN_MOTION_DOT":-4.9e-7,"MEAN_MOTION_DDOT":0},{"OBJECT_NAME":"ONEWEB-0241","OBJECT_ID":"2021-045G","EPOCH":"2026-07-23T09:19:40.789920","CLASSIFICATION_TYPE":"U","MEAN_MOTION":13.15551087,"ECCENTRICITY":0.0002388,"INCLINATION":87.8975,"RA_OF_ASC_NODE":251.9919,"ARG_OF_PERICENTER":101.0111,"MEAN_ANOMALY":259.1288,"EPHEMERIS_TYPE":0,"NORAD_CAT_ID":48773,"ELEMENT_SET_NO":999,"REV_AT_EPOCH":24909,"BSTAR":-0.00042548,"MEAN_MOTION_DOT":-0.00000147,"MEAN_MOTION_DDOT":0},{"OBJECT_NAME":"ONEWEB-0243","OBJECT_ID":"2021-045H","EPOCH":"2026-07-23T02:47:09.126240","CLASSIFICATION_TYPE":"U","MEAN_MOTION":13.15517808,"ECCENTRICITY":0.00022852,"INCLINATION":87.898,"RA_OF_ASC_NODE":252.0598,"ARG_OF_PERICENTER":114.7431,"MEAN_ANOMALY":245.3937,"EPHEMERIS_TYPE":0,"NORAD_CAT_ID":48774,"ELEMENT_SET_NO":999,"REV_AT_EPOCH":24908,"BSTAR":0.016141263,"MEAN_MOTION_DOT":0.00006091,"MEAN_MOTION_DDOT":0},{"OBJECT_NAME":"ONEWEB-0222","OBJECT_ID":"2021-045J","EPOCH":"2026-07-23T09:41:18.894624","CLASSIFICATION_TYPE":"U","MEAN_MOTION":13.155478,"ECCENTRICITY":0.0002272,"INCLINATION":87.8981,"RA_OF_ASC_NODE":251.9719,"ARG_OF_PERICENTER":99.0828,"MEAN_ANOMALY":261.0559,"EPHEMERIS_TYPE":0,"NORAD_CAT_ID":48775,"ELEMENT_SET_NO":999,"REV_AT_EPOCH":24916,"BSTAR":0.000023755,"MEAN_MOTION_DOT":2.2e-7,"MEAN_MOTION_DDOT":0},{"OBJECT_NAME":"ONEWEB-0244","OBJECT_ID":"2021-045K","EPOCH":"2026-07-23T10:18:58.073184","CLASSIFICATION_TYPE":"U","MEAN_MOTION":13.1554818,"ECCENTRICITY":0.0002086,"INCLINATION":87.8988,"RA_OF_ASC_NODE":251.9635,"ARG_OF_PERICENTER":100.4152,"MEAN_ANOMALY":259.7214,"EPHEMERIS_TYPE":0,"NORAD_CAT_ID":48776,"ELEMENT_SET_NO":999,"REV_AT_EPOCH":24973,"BSTAR":0.00021052,"MEAN_MOTION_DOT":9.2e-7,"MEAN_MOTION_DDOT":0},{"OBJECT_NAME":"ONEWEB-0247","OBJECT_ID":"2021-045L","EPOCH":"2026-07-23T13:53:25.649376","CLASSIFICATION_TYPE":"U","MEAN_MOTION":13.15546918,"ECCENTRICITY":0.0002354,"INCLINATION":87.897,"RA_OF_ASC_NODE":251.9609,"ARG_OF_PERICENTER":117.0563,"MEAN_ANOMALY":243.0808,"EPHEMERIS_TYPE":0,"NORAD_CAT_ID":48777,"ELEMENT_SET_NO":999,"REV_AT_EPOCH":24919,"BSTAR":0.0003707,"MEAN_MOTION_DOT":0.00000152,"MEAN_MOTION_DDOT":0},{"OBJECT_NAME":"ONEWEB-0245","OBJECT_ID":"2021-045M","EPOCH":"2026-07-23T02:49:26.332896","CLASSIFICATION_TYPE":"U","MEAN_MOTION":13.15549333,"ECCENTRICITY":0.00022197,"INCLINATION":87.8982,"RA_OF_ASC_NODE":252.0355,"ARG_OF_PERICENTER":97.0461,"MEAN_ANOMALY":263.0922,"EPHEMERIS_TYPE":0,"NORAD_CAT_ID":48778,"ELEMENT_SET_NO":999,"REV_AT_EPOCH":24910,"BSTAR":0.00035004622,"MEAN_MOTION_DOT":0.00000145,"MEAN_MOTION_DDOT":0}]}
