ONEWEB-0207             
1 48242U 21031AJ  26204.63861075 -.00000126  00000+0 -37425-3 0  9991
2 48242  87.8964 282.4386 0001947  91.5542 268.5811 13.14501174253080
ONEWEB-0208             
1 48243U 21031AK  26204.62037808 -.00000173  00000+0 -50238-3 0  9999
2 48243  87.8961 282.4471 0002377  98.0183 262.1217 13.14502664253090
ONEWEB-0200             
1 48244U 21031AL  26204.66003291  .00000204  00000+0  51587-3 0  9994
2 48244  87.8973 282.4291 0002102  96.9080 263.2289 13.14502808253027
ONEWEB-0217             
1 48245U 21031AM  26204.21917499  .00000167  00000+0  41669-3 0  9998
2 48245  87.8972 282.5209 0002389  98.1028 262.0373 13.14503108252912
ONEWEB-0211             
1 48767U 21045A   26204.60446352  .00000003  00000+0 -24635-4 0  9995
2 48767  87.8982 251.8180 0002755  99.0113 261.1329 13.16197718249231
ONEWEB-0223             
1 48768U 21045B   26204.54867425 -.00000129  00000+0 -37712-3 0  9996
2 48768  87.8982 251.9471 0002403 102.4621 257.6778 13.15548545249188
ONEWEB-0230             
1 48769U 21045C   26204.13986802  .00000056  00000+0  11356-3 0  9996
2 48769  87.8979 252.0390 0001870  95.4574 264.6769 13.15548770249393
ONEWEB-0237             
1 48770U 21045D   26204.58510821  .00001001  00000+0  26236-2 0  9994
2 48770  87.8963 251.9511 0002451  87.3115 272.8296 13.15555993249175
ONEWEB-0235             
1 48771U 21045E   26204.17945708 -.00000115  00000+0 -34077-3 0  9996
2 48771  87.8983 252.0221 0002368 105.2113 254.9279 13.15547792249117
ONEWEB-0242             
1 48772U 21045F   26204.55342654 -.00000049  00000+0 -16419-3 0  9996
2 48772  87.8986 251.9451 0002024 102.4575 257.6782 13.15548827249203
ONEWEB-0241             
1 48773U 21045G   26204.38866655 -.00000147  00000+0 -42548-3 0  9991
2 48773  87.8975 251.9919 0002388 101.0111 259.1288 13.15551087249092
ONEWEB-0243             
1 48774U 21045H   26204.11607785  .00006091  00000+0  16141-1 0  9990
2 48774  87.8980 252.0598 0002285 114.7431 245.3937 13.15517808249086
ONEWEB-0222             
1 48775U 21045J   26204.40369091  .00000022  00000+0  23755-4 0  9998
2 48775  87.8981 251.9719 0002272  99.0828 261.0559 13.15547800249161
ONEWEB-0244             
1 48776U 21045K   26204.42983881  .00000092  00000+0  21052-3 0  9994
2 48776  87.8988 251.9635 0002086 100.4152 259.7214 13.15548180249733
ONEWEB-0247             
1 48777U 21045L   26204.57876909  .00000152  00000+0  37070-3 0  9997
2 48777  87.8970 251.9609 0002354 117.0563 243.0808 13.15546918249196
ONEWEB-0245             
1 48778U 21045M   26204.11766589  .00000145  00000+0  35005-3 0  9998
2 48778  87.8982 252.0355 0002219  97.0461 263.0922 13.15549333249108
